[{"OBJECT_NAME":"ICEYE-X4","OBJECT_ID":"2019-038D","EPOCH":"2026-03-09T23:53:58.416000","MEAN_MOTION":15.26985132,"ECCENTRICITY":0.00122769,"INCLINATION":97.8888,"RA_OF_ASC_NODE":96.1923,"ARG_OF_PERICENTER":293.9914,"MEAN_ANOMALY":66.0038,"EPHEMERIS_TYPE":0,"CLASSIFICATION_TYPE":"U","NORAD_CAT_ID":44390,"ELEMENT_SET_NO":999,"REV_AT_EPOCH":36665,"BSTAR":0.00049915294,"MEAN_MOTION_DOT":0.00013179,"MEAN_MOTION_DDOT":0},{"OBJECT_NAME":"STARLINK-35740","OBJECT_ID":"2025-244E","EPOCH":"2026-03-09T18:15:21.503520","MEAN_MOTION":15.30219277,"ECCENTRICITY":0.00013531,"INCLINATION":53.1592,"RA_OF_ASC_NODE":229.3552,"ARG_OF_PERICENTER":59.526,"MEAN_ANOMALY":300.5874,"EPHEMERIS_TYPE":0,"CLASSIFICATION_TYPE":"U","NORAD_CAT_ID":66210,"ELEMENT_SET_NO":999,"REV_AT_EPOCH":2167,"BSTAR":0.00033890228,"MEAN_MOTION_DOT":9.697e-5,"MEAN_MOTION_DDOT":0}]
